ORBCOMM FM33            
1 25983U 99065D   24184.55023154  .00001339  00000+0  48619-3 0  9996
2 25983  45.0277 218.7121 0006210 104.0659 256.0880 14.37892831285707
ORBCOMM FM36            
1 25984U 99065E   24184.80662058  .00002094  00000+0  76495-3 0  9999
2 25984  45.0402 303.9046 0003124 307.9017  52.1548 14.35819461284750
ORBCOMM FM35            
1 25985U 99065F   24184.51741692  .00001534  00000+0  57928-3 0  9998
2 25985  45.0412 308.1033 0002334 116.3358 243.7730 14.35332149284515
ORBCOMM FM34            
1 25986U 99065G   24184.62814033  .00001476  00000+0  55931-3 0  9998
2 25986  45.0399 308.1256 0001960  19.9776 340.1148 14.35309383284646
ORBCOMM FM38            
1 33060U 08031A   24184.44278227  .00002863  00000+0  42224-3 0  9994
2 33060  48.4389 177.9479 0006044 338.0904  21.9751 14.77883618862953
ORBCOMM FM41            
1 33061U 08031B   24184.46053174  .00002683  00000+0  40001-3 0  9990
2 33061  48.4423 184.6103 0005308 324.8318 194.2826 14.77607266862451
ORBCOMM FM29            
1 33062U 08031C   24184.51505769  .00002752  00000+0  41008-3 0  9994
2 33062  48.4377 192.3878 0007179 323.3975 176.3615 14.77553518862374
ORBCOMM FM39            
1 33063U 08031D   24184.55865035  .00002184  00000+0  33942-3 0  9991
2 33063  48.4391 213.1092 0008188 299.8759  60.1341 14.76512702862071
